[{"OBJECT_NAME":"STARLINK-2517","OBJECT_ID":"2021-036AK","EPOCH":"2026-03-10T00:00:02.999808","MEAN_MOTION":15.31001061,"ECCENTRICITY":0.00014361,"INCLINATION":53.1608,"RA_OF_ASC_NODE":87.075,"ARG_OF_PERICENTER":91.5522,"MEAN_ANOMALY":44.4443,"EPHEMERIS_TYPE":0,"CLASSIFICATION_TYPE":"U","NORAD_CAT_ID":48309,"ELEMENT_SET_NO":999,"REV_AT_EPOCH":579,"BSTAR":0.001597019,"MEAN_MOTION_DOT":0.00048443,"MEAN_MOTION_DDOT":0},{"OBJECT_NAME":"JIELONG-3 R\/B","OBJECT_ID":"2026-027H","EPOCH":"2026-03-09T22:52:28.951104","MEAN_MOTION":15.76303399,"ECCENTRICITY":0.02123753,"INCLINATION":97.5118,"RA_OF_ASC_NODE":200.0017,"ARG_OF_PERICENTER":243.897,"MEAN_ANOMALY":114.0305,"EPHEMERIS_TYPE":0,"CLASSIFICATION_TYPE":"U","NORAD_CAT_ID":67753,"ELEMENT_SET_NO":999,"REV_AT_EPOCH":402,"BSTAR":0.00072450109,"MEAN_MOTION_DOT":0.00557901,"MEAN_MOTION_DDOT":2.368277e-6}]
